GLOBALSTAR M024         
1 25883U 99043A   25095.64650669 -.00000052  00000+0  45230-3 0  9998
2 25883  51.9997 184.3001 0000908 342.4551 167.5398 11.10162171106801
GLOBALSTAR M027         
1 25884U 99043B   25096.44809112 -.00000081  00000+0 -67687-3 0  9990
2 25884  52.0197 258.4412 0021061 233.7998 126.0847 11.04371554133354
GLOBALSTAR M054         
1 25885U 99043C   25096.55549512 -.00000060  00000+0  28777-3 0  9991
2 25885  52.0168  37.5191 0006394  50.9951 119.9657 11.39211558111219
GLOBALSTAR M053         
1 25886U 99043D   25095.83415620 -.00000060  00000+0  24318-3 0  9991
2 25886  52.0020 342.3319 0003051 330.4403 109.0242 11.27664020111281
GLOBALSTAR M058         
1 25907U 99049A   25095.84742484 -.00000066  00000+0  25345-3 0  9990
2 25907  51.9944 302.3434 0002707 119.9580 240.1523 11.93195876532901
GLOBALSTAR M050         
1 25908U 99049B   25095.85235888 -.00000086  00000+0  22705-4 0  9997
2 25908  52.0001 315.4101 0008342 245.4226 125.6363 12.07452797139453
GLOBALSTAR M033         
1 25909U 99049C   25095.61445483 -.00000066  00000+0  24496-3 0  9992
2 25909  51.9904 192.9049 0014078 114.5337 245.6979 12.20289087526883
GLOBALSTAR M055         
1 25910U 99049D   25095.73679653 -.00000056  00000+0  32894-3 0  9995
2 25910  52.0013 206.8363 0006485 344.5899  15.4754 12.29424839159378
